0 THORAD AGENA D DEB
1 04200U 69082BP  13283.01914355  .00005628  00000-0  96415-3 0  6958
2 04200 070.0894 221.2328 0030621 049.0036 075.4668 14.68966797306187
0 THORAD AGENA D DEB
1 04200U 69082BP  13285.27295922  .00004626  00000-0  79448-3 0  6965
2 04200 070.0893 215.8297 0030717 045.5248 114.4981 14.68986609306515
0 THORAD AGENA D DEB
1 04200U 69082BP  13287.84142159  .00005979  00000-0  10224-2 0  6972
2 04200 070.0901 209.6716 0030873 041.6079 017.6393 14.69009536306892
0 THORAD AGENA D DEB
1 04200U 69082BP  13290.16730591  .00006182  00000-0  10560-2 0  6985
2 04200 070.0904 204.0954 0031052 038.0895 078.1223 14.69035325307232
0 THORAD AGENA D DEB
1 04200U 69082BP  13292.41507063  .00005051  00000-0  86464-3 0  6993
2 04200 070.0900 198.7066 0031223 034.7097 085.6364 14.69058385307564
0 THORAD AGENA D DEB
1 04200U 69082BP  13294.79578760  .00005877  00000-0  10034-2 0  7006
2 04200 070.0893 192.9987 0031354 031.0930 076.5073 14.69080279307916
